{
  "type": "FeatureCollection",
  "features": [
    {
      "type": "Feature",
      "properties": {
        "norad_id": 40362,
        "name": "YAOGAN-26",
        "group": "resource",
        "lat": -82.74684060572392,
        "lon": 55.29485590333664,
        "alt_km": 461.1286170689482,
        "timestamp": "2025-12-03T06:58:42.898515+00:00",
        "meta_object_name": "YAOGAN-26",
        "meta_object_id": "2014-088A",
        "meta_epoch": "2025-12-02T20:26:14.402976",
        "meta_mean_motion": 15.38758418,
        "meta_eccentricity": 0.0007374,
        "meta_inclination": 97.0639,
        "meta_ra_of_asc_node": 337.8825,
        "meta_arg_of_pericenter": 56.3756,
        "meta_mean_anomaly": 303.8193,
        "meta_ephemeris_type": 0,
        "meta_classification_type": "U",
        "meta_norad_cat_id": 40362,
        "meta_element_set_no": 999,
        "meta_rev_at_epoch": 60742,
        "meta_bstar": 0.00061063,
        "meta_mean_motion_dot": 0.00023378,
        "meta_mean_motion_ddot": 0,
        "tle_line1": "1 40362U 14088A   25336.85155559  .00023378  00000+0  61063-3 0  9999",
        "tle_line2": "2 40362  97.0639 337.8825 0007374  56.3756 303.8193 15.38758418607426"
      },
      "geometry": {
        "type": "Point",
        "coordinates": [
          55.29485590333664,
          -82.74684060572392
        ]
      }
    },
    {
      "type": "Feature",
      "properties": {
        "norad_id": 40376,
        "name": "SMAP",
        "group": "resource",
        "lat": -31.04414523811954,
        "lon": 157.21542468833172,
        "alt_km": 688.979755457116,
        "timestamp": "2025-12-03T06:58:42.898525+00:00",
        "meta_object_name": "SMAP",
        "meta_object_id": "2015-003A",
        "meta_epoch": "2025-12-02T20:10:10.579872",
        "meta_mean_motion": 14.63324117,
        "meta_eccentricity": 0.0001215,
        "meta_inclination": 98.1291,
        "meta_ra_of_asc_node": 341.707,
        "meta_arg_of_pericenter": 87.2057,
        "meta_mean_anomaly": 272.9284,
        "meta_ephemeris_type": 0,
        "meta_classification_type": "U",
        "meta_norad_cat_id": 40376,
        "meta_element_set_no": 999,
        "meta_rev_at_epoch": 57890,
        "meta_bstar": 0.00015802,
        "meta_mean_motion_dot": 7.69e-06,
        "meta_mean_motion_ddot": 0,
        "tle_line1": "1 40376U 15003A   25336.84040023  .00000769  00000+0  15802-3 0  9999",
        "tle_line2": "2 40376  98.1291 341.7070 0001215  87.2057 272.9284 14.63324117578907"
      },
      "geometry": {
        "type": "Point",
        "coordinates": [
          157.21542468833172,
          -31.04414523811954
        ]
      }
    },
    {
      "type": "Feature",
      "properties": {
        "norad_id": 40536,
        "name": "KOMPSAT-3A",
        "group": "resource",
        "lat": 53.284764004718326,
        "lon": -59.30020866646755,
        "alt_km": 431.1903451316148,
        "timestamp": "2025-12-03T06:58:42.898536+00:00",
        "meta_object_name": "KOMPSAT-3A",
        "meta_object_id": "2015-014A",
        "meta_epoch": "2025-12-02T21:24:33.642720",
        "meta_mean_motion": 15.4339637,
        "meta_eccentricity": 0.0003668,
        "meta_inclination": 97.677,
        "meta_ra_of_asc_node": 310.7,
        "meta_arg_of_pericenter": 147.9705,
        "meta_mean_anomaly": 212.1765,
        "meta_ephemeris_type": 0,
        "meta_classification_type": "U",
        "meta_norad_cat_id": 40536,
        "meta_element_set_no": 999,
        "meta_rev_at_epoch": 59143,
        "meta_bstar": 0.00055473,
        "meta_mean_motion_dot": 0.00024734,
        "meta_mean_motion_ddot": 0,
        "tle_line1": "1 40536U 15014A   25336.89205605  .00024734  00000+0  55473-3 0  9999",
        "tle_line2": "2 40536  97.6770 310.7000 0003668 147.9705 212.1765 15.43396370591430"
      },
      "geometry": {
        "type": "Point",
        "coordinates": [
          -59.30020866646755,
          53.284764004718326
        ]
      }
    },
    {
      "type": "Feature",
      "properties": {
        "norad_id": 40697,
        "name": "SENTINEL-2A",
        "group": "resource",
        "lat": 73.79123298914357,
        "lon": -98.79232317631106,
        "alt_km": 781.1762638427999,
        "timestamp": "2025-12-03T06:58:42.898545+00:00",
        "meta_object_name": "SENTINEL-2A",
        "meta_object_id": "2015-028A",
        "meta_epoch": "2025-12-02T20:25:31.685088",
        "meta_mean_motion": 14.30820849,
        "meta_eccentricity": 0.0001042,
        "meta_inclination": 98.5703,
        "meta_ra_of_asc_node": 49.5245,
        "meta_arg_of_pericenter": 93.7237,
        "meta_mean_anomaly": 266.4065,
        "meta_ephemeris_type": 0,
        "meta_classification_type": "U",
        "meta_norad_cat_id": 40697,
        "meta_element_set_no": 999,
        "meta_rev_at_epoch": 54565,
        "meta_bstar": 0.00010294,
        "meta_mean_motion_dot": 2.26e-06,
        "meta_mean_motion_ddot": 0,
        "tle_line1": "1 40697U 15028A   25336.85106117  .00000226  00000+0  10294-3 0  9998",
        "tle_line2": "2 40697  98.5703  49.5245 0001042  93.7237 266.4065 14.30820849545650"
      },
      "geometry": {
        "type": "Point",
        "coordinates": [
          -98.79232317631106,
          73.79123298914357
        ]
      }
    },
    {
      "type": "Feature",
      "properties": {
        "norad_id": 40701,
        "name": "GAOFEN-8",
        "group": "resource",
        "lat": 77.33373085567486,
        "lon": 11.93645141221471,
        "alt_km": 442.18679114343286,
        "timestamp": "2025-12-03T06:58:42.898556+00:00",
        "meta_object_name": "GAOFEN-8",
        "meta_object_id": "2015-030A",
        "meta_epoch": "2025-12-02T21:10:33.566880",
        "meta_mean_motion": 15.38025718,
        "meta_eccentricity": 0.0011201,
        "meta_inclination": 97.6907,
        "meta_ra_of_asc_node": 154.5459,
        "meta_arg_of_pericenter": 172.9093,
        "meta_mean_anomaly": 187.2311,
        "meta_ephemeris_type": 0,
        "meta_classification_type": "U",
        "meta_norad_cat_id": 40701,
        "meta_element_set_no": 999,
        "meta_rev_at_epoch": 58119,
        "meta_bstar": 0.00061886,
        "meta_mean_motion_dot": 0.00023155,
        "meta_mean_motion_ddot": 0,
        "tle_line1": "1 40701U 15030A   25336.88233295  .00023155  00000+0  61886-3 0  9997",
        "tle_line2": "2 40701  97.6907 154.5459 0011201 172.9093 187.2311 15.38025718581198"
      },
      "geometry": {
        "type": "Point",
        "coordinates": [
          11.93645141221471,
          77.33373085567486
        ]
      }
    },
    {
      "type": "Feature",
      "properties": {
        "norad_id": 40718,
        "name": "CARBONITE 1 (CBNT-1)",
        "group": "resource",
        "lat": 59.14624558651815,
        "lon": -8.2640470655984,
        "alt_km": 615.7940664397538,
        "timestamp": "2025-12-03T06:58:42.898566+00:00",
        "meta_object_name": "CARBONITE 1 (CBNT-1)",
        "meta_object_id": "2015-032D",
        "meta_epoch": "2025-12-02T19:06:01.971360",
        "meta_mean_motion": 14.82666695,
        "meta_eccentricity": 0.0013813,
        "meta_inclination": 97.6401,
        "meta_ra_of_asc_node": 158.2781,
        "meta_arg_of_pericenter": 215.1277,
        "meta_mean_anomaly": 144.9027,
        "meta_ephemeris_type": 0,
        "meta_classification_type": "U",
        "meta_norad_cat_id": 40718,
        "meta_element_set_no": 999,
        "meta_rev_at_epoch": 56023,
        "meta_bstar": 0.00043511,
        "meta_mean_motion_dot": 3.463e-05,
        "meta_mean_motion_ddot": 0,
        "tle_line1": "1 40718U 15032D   25336.79585615  .00003463  00000+0  43511-3 0  9998",
        "tle_line2": "2 40718  97.6401 158.2781 0013813 215.1277 144.9027 14.82666695560238"
      },
      "geometry": {
        "type": "Point",
        "coordinates": [
          -8.2640470655984,
          59.14624558651815
        ]
      }
    },
    {
      "type": "Feature",
      "properties": {
        "norad_id": 40878,
        "name": "YAOGAN-27",
        "group": "resource",
        "lat": 74.34476360308918,
        "lon": -72.1561062867699,
        "alt_km": 1196.2518465976173,
        "timestamp": "2025-12-03T06:58:42.898577+00:00",
        "meta_object_name": "YAOGAN-27",
        "meta_object_id": "2015-040A",
        "meta_epoch": "2025-12-02T21:27:40.584672",
        "meta_mean_motion": 13.16059676,
        "meta_eccentricity": 0.0007754,
        "meta_inclination": 100.1004,
        "meta_ra_of_asc_node": 326.9599,
        "meta_arg_of_pericenter": 310.952,
        "meta_mean_anomaly": 49.0922,
        "meta_ephemeris_type": 0,
        "meta_classification_type": "U",
        "meta_norad_cat_id": 40878,
        "meta_element_set_no": 999,
        "meta_rev_at_epoch": 49184,
        "meta_bstar": 7.5959e-05,
        "meta_mean_motion_dot": -1.3e-07,
        "meta_mean_motion_ddot": 0,
        "tle_line1": "1 40878U 15040A   25336.89421973 -.00000013  00000+0  75959-4 0  9992",
        "tle_line2": "2 40878 100.1004 326.9599 0007754 310.9520  49.0922 13.16059676491847"
      },
      "geometry": {
        "type": "Point",
        "coordinates": [
          -72.1561062867699,
          74.34476360308918
        ]
      }
    }
  ]
}